[{"OBJECT_NAME":"KUIPER-00023","OBJECT_ID":"2025-088P","EPOCH":"2026-03-09T12:21:02.638368","MEAN_MOTION":14.79934157,"ECCENTRICITY":0.00084141,"INCLINATION":51.899,"RA_OF_ASC_NODE":106.3195,"ARG_OF_PERICENTER":96.3208,"MEAN_ANOMALY":263.8713,"EPHEMERIS_TYPE":0,"CLASSIFICATION_TYPE":"U","NORAD_CAT_ID":63737,"ELEMENT_SET_NO":999,"REV_AT_EPOCH":4773,"BSTAR":0.00062479522,"MEAN_MOTION_DOT":4.546e-5,"MEAN_MOTION_DDOT":0},{"OBJECT_NAME":"FENGYUN 1C DEB","OBJECT_ID":"1999-025AXW","EPOCH":"2026-03-09T05:37:50.606400","MEAN_MOTION":14.75813384,"ECCENTRICITY":0.00657839,"INCLINATION":98.8937,"RA_OF_ASC_NODE":75.4735,"ARG_OF_PERICENTER":64.6109,"MEAN_ANOMALY":296.1889,"EPHEMERIS_TYPE":0,"CLASSIFICATION_TYPE":"U","NORAD_CAT_ID":30884,"ELEMENT_SET_NO":999,"REV_AT_EPOCH":99936,"BSTAR":0.0022568408,"MEAN_MOTION_DOT":0.00015997,"MEAN_MOTION_DDOT":0}]
